0051P      a  2022 10  4.0461  1.694041  0.543238  269.2219   83.6831    5.4251  20201215  10.0  8.0  51P-A/Harrington                                         NK   3014
0051P      d  2022 10  1.9582  1.693831  0.543182  269.2112   83.6731    5.4266  20201215  16.0  8.0  51P-D/Harrington                                         MPEC 2015-L08
0051P      d  2022 10  1.9172  1.693823  0.543183  269.2120   83.6721    5.4266  20201215  16.0  8.0  51P-D/Harrington                                         MPEC 2015-L08
0051P      d  2022 10  1.8929  1.693842  0.543168  269.2608   83.6679    5.4259  20201215  16.0  8.0  51P-D/Harrington                                         NK   3013
0051P      d  2022 10  1.8930  1.693842  0.543168  269.2608   83.6679    5.4259  20201215  16.0  8.0  51P-D/Harrington                                         NK   3013
0052P         2021 10  5.2216  1.777256  0.539893  139.6012  336.8390   10.2317  20201215  13.5  6.0  52P/Harrington-Abell                                     MPC 88330
0053P         2016 04 30.9866  2.430183  0.552111  134.4388  148.8237    6.6087  20201215   7.7  4.8  53P/Van Biesbroeck                                       MPC100283
0054P         2017 04 16.2999  2.178077  0.425685    1.7671  358.8139    6.0628  20201215   9.0  4.0  54P/de Vico-Swift-NEAT                                   MPC 89011
0055P         2031 05 17.8003  0.968289  0.906458  172.5232  235.4049  162.4021  20201215   9.0  4.0  55P/Tempel-Tuttle                                        MPC 31070
0056P         2016 07 18.7545  2.499312  0.507120   43.9977  345.9875    8.1594  20201215   8.5  6.0  56P/Slaughter-Burnham                                    MPC101100
0057P         2021 10 17.4324  1.720370  0.500805  115.2467  188.7775    2.8507  20201215  12.5  6.0  57P/du Toit-Neujmin-Delporte                             MPC 98565
0058P         2020 05 27.4273  1.377401  0.662433  200.4420  159.0788   13.1099  20201215  15.5  6.0  58P/Jackson-Neujmin                                      MPEC 2020-SI8
0059P         2018 09 16.4508  2.356720  0.474903  127.5817  312.8345    9.3415  20201215   7.0  6.0  59P/Kearns-Kwee                                          MPC111774
0060P         2018 12 10.6872  1.633337  0.536056  216.8768  267.5811    3.5976  20201215   9.0  4.0  60P/Tsuchinshan                                          MPEC 2015-M77
0061P         2022 10 24.4683  2.123449  0.423845  221.8690  162.9826    5.9988  20201215   6.0 10.0  61P/Shajn-Schaldach                                      MPEC 2015-Q71
0062P         2023 12 20.6582  1.218243  0.635278   45.7647   70.9012    4.8618  20201215   8.0 10.0  62P/Tsuchinshan                                          MPC109147
0063P         2026 07 13.7985  1.968132  0.648899  169.1273  358.0184   19.7320  20201215  10.5  6.0  63P/Wild                                                 MPC 84320
0064P         2018 11  4.0201  1.390931  0.687737   97.0804  300.0014    8.9504  20201215   9.5 12.0  64P/Swift-Gehrels                                        MPC111774
0065P         2017 10 17.8066  2.915017  0.249677  213.8367   62.0227    9.1813  20201215   5.0  6.0  65P/Gunn                                                 MPC104795
0066P         2018 05 19.1849  1.292540  0.786874  257.3373   21.8526   18.6552  20201215   9.0  4.0  66P/du Toit                                              MPC109147
0067P         2021 11  1.9165  1.209468  0.650364   22.0524   36.4279    3.8717  20201215  11.0  4.0  67P/Churyumov-Gerasimenko                                MPC 89011
0068P         2019 11  9.0973  1.794338  0.637615  153.1010  175.0729   11.1101  20201215  10.0  4.0  68P/Klemola                                              MPC 75716
0069P         2019 03 18.1914  2.282334  0.413045  343.4806  104.8290   22.0332  20201215   9.5 12.0  69P/Taylor                                               MPC114607
0070P         2021 11  3.1828  2.008921  0.453500    1.8507  119.2679    6.5982  20201215  11.0  6.0  70P/Kojima                                               MPC 92276
0071P         2023 01 21.3751  1.587737  0.494079  209.0333   59.4280    9.4394  20201215   9.8  6.0  71P/Clark                                                MPC107051
0072P         2023 06 16.1285  0.783674  0.818228  346.6782   26.6896   10.9364  20201215  17.5 10.0  72P/Denning-Fujikawa                                     MPC 89011
0073P         2022 08 25.5509  0.972395  0.685619  199.4545   69.6407   11.2314  20201215  11.5  6.0  73P/Schwassmann-Wachmann                                 MPC106348
0073P      t  2022 08 27.0500  0.972258  0.685822  199.4359   69.6433   11.2335  20201215  11.5  6.0  73P-T/Schwassmann-Wachmann                               MPC106348
0074P         2018 03 20.9371  3.599811  0.153477   96.3430   75.9748    6.4511  20201215   5.0  6.0  74P/Smirnova-Chernykh                                    MPEC 2020-M07
0076P         2019 10 26.0842  1.604372  0.538103  359.9886   84.1203   30.4575  20201215   8.0 12.0  76P/West-Kohoutek-Ikemura                                MPEC 2020-SI8
0077P         2023 04  3.2832  2.345699  0.352216  196.8559   14.7904   24.3214  20201215   7.0  8.0  77P/Longmore                                             MPC100283
0078P         2019 04  2.6841  2.012336  0.461860  192.6423  210.5264    6.2498  20201215   9.0  4.0  78P/Gehrels                                              MPEC 2016-U66
0079P         2018 09 12.9968  1.121464  0.618912  281.8135  280.5279    3.1480  20201215  16.0  4.0  79P/du Toit-Hartley                                      MPC 94675
0080P         2022 12  8.6965  1.613958  0.598950  339.2532  259.8204   29.9372  20201215   9.0  4.0  80P/Peters-Hartley                                       MPEC 2014-P41
0081P         2022 12 15.8072  1.597523  0.537080   41.6989  136.1011    3.2368  20201215   7.0  6.0  81P/Wild                                                 MPC105241
0082P         2018 06 25.6880  3.632735  0.121708  226.7818  239.3102    1.1285  20201215   5.0  8.0  82P/Gehrels                                              MPEC 2020-L06
0084P         2020 06  3.8313  1.718865  0.515613  281.5695  108.1749    7.5522  20201215   9.5  8.0  84P/Giclas                                               MPEC 2020-SI8
0086P         2022 02  7.4378  2.260935  0.372544  179.3488   72.3669   15.4741  20201215  11.0  6.0  86P/Wild                                                 MPC109147
0087P         2020 05  9.4139  2.100052  0.389447   24.9838  181.8599    2.6033  20201215   7.2 10.0  87P/Bus                                                  MPEC 2020-SI8
0088P         2020 09 26.6057  1.353052  0.564315  235.9058   56.6814    4.3836  20201215  11.0  6.0  88P/Howell                                               MPEC 2019-JE2
0089P         2024 03 25.6703  2.219909  0.408653  250.3077   41.3970   12.0697  20201215  11.5  6.0  89P/Russell                                              MPC100283
0090P         2017 06 19.0439  2.967381  0.509845   29.0869   13.2087    9.6439  20201215   8.5  6.0  90P/Gehrels                                              MPC107051
0091P         2020 11  9.4108  2.604186  0.330672  354.8084  247.8277   14.0913  20201215   7.5  6.0  91P/Russell                                              MPC105241
0092P         2015 03  3.5450  1.813463  0.660714  163.7313  181.3772   19.4876  20201215  12.0  6.0  92P/Sanguin                                              MPEC 2014-J58
0093P         2017 02 28.7971  1.699546  0.612302   74.8340  339.6384   12.2027  20201215   9.0  4.0  93P/Lovas                                                NK   2707
0094P         2023 05 21.6859  2.227838  0.364777   92.4818   70.8601    6.1879  20201215   9.0  6.0  94P/Russell                                              MPEC 2020-W26
0095P         1996 01 28.4204  8.518200  0.377951  339.7666  209.2593    6.9348  20201215   6.5  2.0  95P/Chiron                                               MPC 75717
0096P         2023 01 31.5179  0.116222  0.961612   14.7127   94.0630   57.7561  20201215   9.0  4.0  96P/Machholz                                             MPEC 2017-T14
0097P         2022 02 14.7888  2.572198  0.461150  229.7305  184.1206   17.9263  20201215   5.5  6.0  97P/Metcalf-Brewington                                   MPC 77020
0098P         2021 01  4.9324  1.663012  0.562255  157.9223  114.7114   10.5614  20201215   9.0  8.0  98P/Takamizawa                                           MPEC 2013-H38
0099P         2022 04 12.7964  4.705734  0.230063  174.9489   28.1131    4.3384  20201215   4.5  6.0  99P/Kowal                                                MPEC 2020-W26
0100P         2022 08 10.9377  2.016472  0.412454  181.9977   37.7088   25.5677  20201215   9.0  4.0  100P/Hartley                                             MPEC 2013-O31
0101P         2020 01 12.5535  2.344821  0.595805  277.6987  116.2308    5.0528  20201215  12.0  4.8  101P/Chernykh                                            MPC115887
0102P         2021 01 22.3855  2.069919  0.457257   20.5374  339.3655   25.8842  20201215   6.5  8.0  102P/Shoemaker                                           MPC 86232
0103P         2023 10 13.1097  1.067054  0.693056  181.2881  219.7283   13.5969  20201215   8.5  8.0  103P/Hartley                                             MPEC 2018-HA5
0104P         2022 01 10.8114  1.070631  0.666349  226.8832  207.6614    5.7180  20201215  16.0  4.0  104P/Kowal                                               MPC100283
0105P         2018 08  9.9066  2.046460  0.409707   46.4785  192.4171    9.1720  20201215  11.5  6.0  105P/Singer Brewster                                     MPC109147
0106P         2021 08 18.7183  1.528539  0.594010  353.6236   48.9184   19.5367  20201215  14.0  4.8  106P/Schuster                                            MPC 92276
